CCSDS_OEM_VERS = 1.0
CREATION_DATE  = 2017-05-11T11:01:11
ORIGINATOR     = GMAT USER

META_START
OBJECT_NAME          = MOPSSat_alt_35785_km_RAAN_0_072
OBJECT_ID            = SatId
CENTER_NAME          = Earth
REF_FRAME            = EME2000
TIME_SYSTEM          = UTC
START_TIME           = 2017-01-01T00:00:00.000
USEABLE_START_TIME   = 2017-01-01T00:00:00.000
USEABLE_STOP_TIME    = 2017-01-02T00:00:00.000
STOP_TIME            = 2017-01-02T00:00:00.000
INTERPOLATION        = Lagrange
INTERPOLATION_DEGREE = 7 
META_STOP


                                                                                   

2017-01-01T20:10:00.000   2.310373663730812e+04  -3.524298755642623e+04  -6.456213869929079e+00   2.571393715064425e+00   1.688861585978661e+00   1.622155017501488e-04
2017-01-01T20:10:10.000   2.312944441886598e+04  -3.522608955651343e+04  -6.454590215247094e+00   2.570162468167378e+00   1.690738313221540e+00   1.625154259471882e-04
2017-01-01T20:10:20.000   2.315513988112308e+04  -3.520917279379568e+04  -6.452963561773357e+00   2.568929849930287e+00   1.692614143394734e+00   1.628152597482329e-04
2017-01-01T20:10:30.000   2.318082301057156e+04  -3.519223727711518e+04  -6.451333910399641e+00   2.567695860995924e+00   1.694489075508720e+00   1.631150030215254e-04
2017-01-01T20:10:40.000   2.320649379377525e+04  -3.517528301528095e+04  -6.449701262014902e+00   2.566460502004651e+00   1.696363108579205e+00   1.634146556361238e-04
2017-01-01T20:10:50.000   2.323215221676948e+04  -3.515831001746531e+04  -6.448065617543434e+00   2.565223773623304e+00   1.698236241583310e+00   1.637142174549108e-04
2017-01-01T20:11:00.000   2.325779826566139e+04  -3.514131829280749e+04  -6.446426977906729e+00   2.563985676516320e+00   1.700108473503395e+00   1.640136883415855e-04
2017-01-01T20:11:10.000   2.328343192647492e+04  -3.512430785051590e+04  -6.444785344033299e+00   2.562746211353182e+00   1.701979803315745e+00   1.643130681588594e-04
2017-01-01T20:11:20.000   2.330905318556146e+04  -3.510727869959849e+04  -6.443140716832803e+00   2.561505378788777e+00   1.703850230020544e+00   1.646123567732312e-04
2017-01-01T20:11:30.000   2.333466202926072e+04  -3.509023084908489e+04  -6.441493097217331e+00   2.560263179479577e+00   1.705719752617123e+00   1.649115540510475e-04
2017-01-01T20:11:40.000   2.336025844397906e+04  -3.507316430797519e+04  -6.439842486096521e+00   2.559019614079907e+00   1.707588370109669e+00   1.652106598594097e-04
2017-01-01T20:11:50.000   2.338584241615831e+04  -3.505607908525879e+04  -6.438188884379262e+00   2.557774683243323e+00   1.709456081504964e+00   1.655096740658310e-04
2017-01-01T20:12:00.000   2.341141393226231e+04  -3.503897518992479e+04  -6.436532292974814e+00   2.556528387623368e+00   1.711322885811384e+00   1.658085965380580e-04
2017-01-01T20:12:10.000   2.343697297874617e+04  -3.502185263098276e+04  -6.434872712794760e+00   2.555280727875079e+00   1.713188782036674e+00   1.661074271437196e-04
2017-01-01T20:12:20.000   2.346251954204136e+04  -3.500471141747093e+04  -6.433210144753792e+00   2.554031704655593e+00   1.715053769186842e+00   1.664061657501378e-04
2017-01-01T20:12:30.000   2.348805360852645e+04  -3.498755155847787e+04  -6.431544589771836e+00   2.552781318625718e+00   1.716917846264037e+00   1.667048122239989e-04
2017-01-01T20:12:40.000   2.351357516460436e+04  -3.497037306308972e+04  -6.429876048768959e+00   2.551529570446097e+00   1.718781012272179e+00   1.670033664322522e-04
2017-01-01T20:12:50.000   2.353908419636729e+04  -3.495317594061840e+04  -6.428204522687593e+00   2.550276460793833e+00   1.720643266192499e+00   1.673018282382005e-04
2017-01-01T20:13:00.000   2.356458069000304e+04  -3.493596020032554e+04  -6.426530012465637e+00   2.549021990342366e+00   1.722504607013210e+00   1.676001975062433e-04
2017-01-01T20:13:10.000   2.359006463164377e+04  -3.491872585152485e+04  -6.424852519046431e+00   2.547766159768943e+00   1.724365033718455e+00   1.678984741001117e-04
2017-01-01T20:13:20.000   2.361553600795236e+04  -3.490147290318600e+04  -6.423172043340197e+00   2.546508969725748e+00   1.726224545331120e+00   1.681966578897146e-04
2017-01-01T20:13:30.000   2.364099480553746e+04  -3.488420136432956e+04  -6.421488586262474e+00   2.545250420868683e+00   1.728083140870128e+00   1.684947487443095e-04
2017-01-01T20:13:40.000   2.366644101108626e+04  -3.486691124393794e+04  -6.419802148725459e+00   2.543990513850871e+00   1.729940819360132e+00   1.687927465340493e-04
2017-01-01T20:13:50.000   2.369187461103316e+04  -3.484960255117663e+04  -6.418112731659435e+00   2.542729249338791e+00   1.731797579807332e+00   1.690906511261258e-04
2017-01-01T20:14:00.000   2.371729559180632e+04  -3.483227529523068e+04  -6.416420335996987e+00   2.541466628000348e+00   1.733653421217463e+00   1.693884623876321e-04
2017-01-01T20:14:10.000   2.374270393982690e+04  -3.481492948530357e+04  -6.414724962672822e+00   2.540202650504801e+00   1.735508342595750e+00   1.696861801855645e-04
2017-01-01T20:14:20.000   2.376809964126648e+04  -3.479756513078657e+04  -6.413026612640483e+00   2.538937317535098e+00   1.737362342929191e+00   1.699838043839556e-04
2017-01-01T20:14:30.000   2.379348268237451e+04  -3.478018224103162e+04  -6.411325286849997e+00   2.537670629771330e+00   1.739215421210468e+00   1.702813348477346e-04
2017-01-01T20:14:40.000   2.381885304934910e+04  -3.476278082544054e+04  -6.409620986256638e+00   2.536402587897233e+00   1.741067576428512e+00   1.705787714412055e-04
2017-01-01T20:14:50.000   2.384421072890966e+04  -3.474536089307237e+04  -6.407913711782472e+00   2.535133192571567e+00   1.742918807610307e+00   1.708761140347737e-04
2017-01-01T20:15:00.000   2.386955570772413e+04  -3.472792245303582e+04  -6.406203464354787e+00   2.533862444456724e+00   1.744769113779078e+00   1.711733624982191e-04
2017-01-01T20:15:10.000   2.389488797253879e+04  -3.471046551440088e+04  -6.404490244897435e+00   2.532590344212276e+00   1.746618493963763e+00   1.714705167022193e-04
2017-01-01T20:15:20.000   2.392020750984832e+04  -3.469299008642227e+04  -6.402774054352633e+00   2.531316892511267e+00   1.748466947174932e+00   1.717675765144811e-04
2017-01-01T20:15:30.000   2.394551430614130e+04  -3.467549617837433e+04  -6.401054893664902e+00   2.530042090028180e+00   1.750314472422705e+00   1.720645418026173e-04
2017-01-01T20:15:40.000   2.397080834789941e+04  -3.465798379954991e+04  -6.399332763780901e+00   2.528765937438848e+00   1.752161068716695e+00   1.723614124341403e-04
2017-01-01T20:15:50.000   2.399608962135599e+04  -3.464045295943120e+04  -6.397607665666383e+00   2.527488435432916e+00   1.754006735048385e+00   1.726581882736207e-04
2017-01-01T20:16:00.000   2.402135811282198e+04  -3.462290366746063e+04  -6.395879600283506e+00   2.526209584697135e+00   1.755851470414916e+00   1.729548691865209e-04
2017-01-01T20:16:10.000   2.404661380855492e+04  -3.460533593313250e+04  -6.394148568599903e+00   2.524929385922047e+00   1.757695273809529e+00   1.732514550376540e-04
2017-01-01T20:16:20.000   2.407185669533843e+04  -3.458774976558998e+04  -6.392414571548964e+00   2.523647839772608e+00   1.759538144263868e+00   1.735479456979975e-04
2017-01-01T20:16:30.000   2.409708675990108e+04  -3.457014517402900e+04  -6.390677610069605e+00   2.522364946917630e+00   1.761380080805556e+00   1.738443410378603e-04
2017-01-01T20:16:40.000   2.412230398906659e+04  -3.455252216759408e+04  -6.388937685096058e+00   2.521080708022185e+00   1.763221082469160e+00   1.741406409286493e-04
2017-01-01T20:16:50.000   2.414750836934973e+04  -3.453488075565774e+04  -6.387194797585281e+00   2.519795123767970e+00   1.765061148266689e+00   1.744368452381133e-04
2017-01-01T20:17:00.000   2.417269988729003e+04  -3.451722094759028e+04  -6.385448948494399e+00   2.518508194836523e+00   1.766900277211953e+00   1.747329538342721e-04
2017-01-01T20:17:10.000   2.419787852937718e+04  -3.449954275281110e+04  -6.383700138785697e+00   2.517219921912969e+00   1.768738468315124e+00   1.750289665845372e-04
2017-01-01T20:17:20.000   2.422304428207222e+04  -3.448184618077586e+04  -6.381948369425471e+00   2.515930305685087e+00   1.770575720584280e+00   1.753248833559712e-04
2017-01-01T20:17:30.000   2.424819713183181e+04  -3.446413124095794e+04  -6.380193641382099e+00   2.514639346841948e+00   1.772412033027174e+00   1.756207040155615e-04
2017-01-01T20:17:40.000   2.427333706511736e+04  -3.444639794284194e+04  -6.378435955625421e+00   2.513347046073453e+00   1.774247404651903e+00   1.759164284303328e-04
2017-01-01T20:17:50.000   2.429846406848548e+04  -3.442864629586107e+04  -6.376675313120563e+00   2.512053404065766e+00   1.776081834473513e+00   1.762120564683932e-04
2017-01-01T20:18:00.000   2.432357812852740e+04  -3.441087630943860e+04  -6.374911714831992e+00   2.510758421504328e+00   1.777915321509570e+00   1.765075879982398e-04
2017-01-01T20:18:10.000   2.434867923186916e+04  -3.439308799298794e+04  -6.373145161723563e+00   2.509462099073876e+00   1.779747864780186e+00   1.768030228887546e-04
2017-01-01T20:18:20.000   2.437376736523095e+04  -3.437528135586964e+04  -6.371375654754166e+00   2.508164437455299e+00   1.781579463312335e+00   1.770983610099207e-04
2017-01-01T20:18:30.000   2.439884251533768e+04  -3.435745640745548e+04  -6.369603194884148e+00   2.506865437330309e+00   1.783410116133343e+00   1.773936022317524e-04
2017-01-01T20:18:40.000   2.442390466891017e+04  -3.433961315713499e+04  -6.367827783075966e+00   2.505565099381925e+00   1.785239822270222e+00   1.776887464241962e-04
2017-01-01T20:18:50.000   2.444895381263921e+04  -3.432175161433213e+04  -6.366049420295774e+00   2.504263424295678e+00   1.787068580747797e+00   1.779837934568148e-04
2017-01-01T20:19:00.000   2.447398993316663e+04  -3.430387178852094e+04  -6.364268107515063e+00   2.502960412760757e+00   1.788896390587319e+00   1.782787431985740e-04
